     2.100          NAVIGATION                              RINEX VERSION / TYPE
fic2rin                                 07/30/2012 00:12:13 PGM / RUN BY / DATE
                                                            END OF HEADER
21 12  7 29 12  0  0.0 -.239705666900D-03 -.250111042988D-11  .000000000000D+00
     .280000000000D+02  .368750000000D+01  .559916179899D-08  .101484522954D+01
     .296160578728D-06  .192899776157D-01  .611320137978D-05  .515357698631D+04
     .432000000000D+05 -.251457095146D-06 -.235255060264D+01  .117346644402D-06
     .931300086101D+00  .251000000000D+03 -.223086998636D+01 -.876965100545D-08
    -.325013538118D-10  .100000000000D+01  .169900000000D+04  .000000000000D+00
     .240000000000D+01  .000000000000D+00 -.111758708954D-07  .280000000000D+02
     .360060000000D+05  .400000000000D+01
22 12  7 29 12  0  0.0  .145952217281D-03  .454747350886D-12  .000000000000D+00
     .570000000000D+02  .809375000000D+01  .531807866218D-08 -.900008031393D+00
     .569969415665D-06  .631150871050D-02  .900775194168D-05  .515367592239D+04
     .432000000000D+05 -.167638063431D-07 -.129863542769D+01  .176951289177D-06
     .926603611434D+00  .189218750000D+03 -.200847451012D+01 -.838534928346D-08
    -.375729936374D-09  .100000000000D+01  .169900000000D+04  .000000000000D+00
     .240000000000D+01  .000000000000D+00 -.172294676304D-07  .570000000000D+02
     .360060000000D+05  .400000000000D+01
23 12  7 29 12  0  0.0  .180551782250D-03 -.386535248253D-11  .000000000000D+00
     .420000000000D+02  .137843750000D+03  .438839708007D-08 -.280672372566D+01
     .709295272827D-05  .815474311821D-02  .867433845997D-05  .515361300659D+04
     .432000000000D+05 -.689178705215D-07 -.249012495341D+00 -.614672899246D-07
     .959709390514D+00  .217718750000D+03 -.296736373024D+01 -.790354350003D-08
     .130362572982D-09  .100000000000D+01  .169900000000D+04  .000000000000D+00
     .240000000000D+01  .000000000000D+00 -.200234353542D-07  .420000000000D+02
     .360060000000D+05  .400000000000D+01
26 12  7 29 12  0  0.0 -.331799499691D-03  .118234311230D-10  .000000000000D+00
     .300000000000D+02  .145750000000D+03  .385230332104D-08 -.294548631117D+01
     .724010169506D-05  .207797155017D-01  .872090458870D-05  .515367387581D+04
     .432000000000D+05  .335276126862D-06 -.174976105829D+00 -.242143869400D-06
     .982886316795D+00  .217531250000D+03  .120360317499D+01 -.750245536452D-08
     .213580325049D-09  .100000000000D+01  .169900000000D+04  .000000000000D+00
     .240000000000D+01  .000000000000D+00 -.605359673500D-08  .300000000000D+02
     .360060000000D+05  .400000000000D+01
27 12  7 29 12  0  0.0  .414305366576D-03  .409272615798D-11  .000000000000D+00
     .610000000000D+02  .491250000000D+02  .425053419467D-08 -.210219467890D+01
     .298954546452D-05  .217296069022D-01  .131689012051D-05  .515370433426D+04
     .432000000000D+05 -.875443220139D-07  .748426958301D+00  .543892383575D-06
     .982042461759D+00  .366906250000D+03 -.105474271845D+01 -.802533428739D-08
     .692886004340D-10  .100000000000D+01  .169900000000D+04  .000000000000D+00
     .240000000000D+01  .000000000000D+00 -.419095158577D-08  .610000000000D+02
     .360060000000D+05  .400000000000D+01
28 12  7 29 12  0  0.0  .169810373336D-03  .386535248253D-11  .000000000000D+00
     .120000000000D+02 -.134312500000D+03  .412410035676D-08 -.957824116282D+00
    -.686943531036D-05  .179474324686D-01  .755675137043D-05  .515363525772D+04
     .432000000000D+05 -.169500708580D-06  .188276202140D+01  .340864062309D-06
     .979619339843D+00  .243406250000D+03 -.182506495660D+01 -.818605526777D-08
    -.316441752498D-09  .100000000000D+01  .169900000000D+04  .000000000000D+00
     .240000000000D+01  .000000000000D+00 -.107102096081D-07  .120000000000D+02
     .360060000000D+05  .400000000000D+01
29 12  7 29 12  0  0.0  .338545534760D-03  .409272615798D-11  .000000000000D+00
     .410000000000D+02 -.309687500000D+02  .426732060817D-08  .128122846682D+01
    -.168755650520D-05  .203787593637D-02  .101402401924D-04  .515354738998D+04
     .432000000000D+05  .633299350739D-07  .292450294277D+01 -.856816768646D-07
     .964305286637D+00  .185687500000D+03 -.111317918447D+01 -.779246744469D-08
     .410017078857D-09  .100000000000D+01  .169900000000D+04  .000000000000D+00
     .240000000000D+01  .000000000000D+00 -.977888703346D-08  .410000000000D+02
     .360060000000D+05  .400000000000D+01
30 12  7 29 12  0  0.0 -.328101683408D-03 -.233058017329D-10  .000000000000D+00
     .900000000000D+01 -.107812500000D+03  .449375861166D-08 -.169975201420D+01
    -.552460551262D-05  .112310147379D-01  .591576099396D-05  .515368860817D+04
     .432000000000D+05  .540167093277D-07  .173158626731D+01  .301748514175D-06
     .960430497945D+00  .263125000000D+03  .158827218964D+01 -.812248119109D-08
    -.315727437029D-09  .100000000000D+01  .169900000000D+04  .000000000000D+00
     .136500000000D+02  .000000000000D+00 -.419095158577D-08  .900000000000D+01
     .360060000000D+05  .400000000000D+01
31 12  7 29 12  0  0.0  .263741705567D-03  .272848410532D-11  .000000000000D+00
     .820000000000D+02  .239687500000D+02  .433732352408D-08  .189056897443D+01
     .134482979774D-05  .773995125201D-02  .131875276566D-05  .515369536400D+04
     .432000000000D+05  .132247805595D-06  .803927524751D+00 -.540167093277D-07
     .980909829620D+00  .359031250000D+03 -.858520471955D+00 -.818569811004D-08
    -.118219210019D-09  .100000000000D+01  .169900000000D+04  .000000000000D+00
     .240000000000D+01  .000000000000D+00 -.135041773319D-07  .820000000000D+02
     .360060000000D+05  .400000000000D+01
32 12  7 29 12  0  0.0 -.470531638712D-03 -.432009983342D-11  .000000000000D+00
     .500000000000D+01  .261250000000D+02  .466769442821D-08  .246515738176D+01
     .122003257275D-05  .118294560816D-01  .957027077675D-05  .515361938286D+04
     .432000000000D+05  .115483999252D-06 -.122193540521D+01  .242143869400D-06
     .950859646069D+00  .186031250000D+03 -.549210664166D+00 -.787354225035D-08
    -.486091676241D-09  .100000000000D+01  .169900000000D+04  .000000000000D+00
     .240000000000D+01  .000000000000D+00 -.325962901115D-08  .500000000000D+01
     .360060000000D+05  .400000000000D+01
 1 12  7 29 11 59 44.0  .267489347607D-03  .147792889038D-11  .000000000000D+00
     .000000000000D+00  .453125000000D+01  .482341520032D-08  .241313207376D+01
     .275671482086D-06  .980201875791D-03  .609830021858D-05  .515363647461D+04
     .431840000000D+05  .186264514923D-08 -.235983528367D+01  .931322574615D-08
     .960004916058D+00  .259500000000D+03  .292535637992D+00 -.811712382507D-08
     .166078346401D-09  .100000000000D+01  .169900000000D+04  .000000000000D+00
     .240000000000D+01  .000000000000D+00  .838190317154D-08  .000000000000D+00
     .386460000000D+05  .400000000000D+01
 1 12  7 29 13 59 44.0  .267500057817D-03  .147792889038D-11  .000000000000D+00
     .200000000000D+01  .421875000000D+01  .477555606394D-08 -.281990464828D+01
     .270083546638D-06  .980088487267D-03  .620260834694D-05  .515363670158D+04
     .503840000000D+05  .130385160446D-07 -.235989367020D+01  .204890966415D-07
     .960006165390D+00  .260468750000D+03  .292592586467D+00 -.810355183117D-08
     .163578242262D-09  .100000000000D+01  .169900000000D+04  .000000000000D+00
     .240000000000D+01  .000000000000D+00  .838190317154D-08  .200000000000D+01
     .432060000000D+05  .400000000000D+01
 2 12  7 29 14  0  0.0  .398279633373D-03  .113686837722D-11  .000000000000D+00
     .103000000000D+03  .440625000000D+01  .524521848440D-08 -.192526881341D+01
     .260770320892D-06  .113439596025D-01  .598840415478D-05  .515372140312D+04
     .504000000000D+05 -.130385160446D-07 -.237499717438D+01 -.160187482834D-06
     .938553656721D+00  .252593750000D+03 -.275558859454D+01 -.820069873488D-08
     .308227124611D-09  .100000000000D+01  .169900000000D+04  .000000000000D+00
     .240000000000D+01  .000000000000D+00 -.172294676304D-07  .103000000000D+03
     .432060000000D+05  .400000000000D+01
 3 12  7 29 14  0  0.0  .814413651824D-04  .477484718431D-11  .000000000000D+00
     .490000000000D+02 -.420312500000D+02  .487877464912D-08 -.175252061479D+01
    -.215135514736D-05  .156144700013D-01  .102836638689D-04  .515373140335D+04
     .504000000000D+05  .359490513802D-06  .274367791784D+01  .726431608200D-07
     .932138401066D+00  .163125000000D+03  .121207745420D+01 -.795926010656D-08
     .260010830495D-09  .100000000000D+01  .169900000000D+04  .000000000000D+00
     .340000000000D+01  .000000000000D+00 -.465661287308D-08  .490000000000D+02
     .432060000000D+05  .400000000000D+01
 4 12  7 29 14  0  0.0  .258313026279D-03  .113686837722D-10  .000000000000D+00
     .780000000000D+02  .575000000000D+01  .539379610183D-08  .130960679395D+01
     .352039933205D-06  .100863203406D-01  .639818608761D-05  .515362219048D+04
     .504000000000D+05 -.145286321640D-06 -.235817913460D+01 -.186264514923D-08
     .937595233256D+00  .249750000000D+03  .875356691423D+00 -.847463871700D-08
     .189293599124D-10  .100000000000D+01  .169900000000D+04  .000000000000D+00
     .240000000000D+01  .000000000000D+00 -.651925802231D-08  .780000000000D+02
     .432060000000D+05  .400000000000D+01
 5 12  7 29 14  0  0.0 -.338944606483D-03 -.329691829393D-11  .000000000000D+00
     .103000000000D+03  .831250000000D+01  .468590947265D-08  .225273318441D+00
     .504776835442D-06  .274965865538D-02  .947900116444D-05  .515371051216D+04
     .504000000000D+05  .614672899246D-07 -.131098010098D+01 -.316649675369D-07
     .950187192368D+00  .189687500000D+03  .193681797087D+00 -.803319175754D-08
    -.491806199988D-09  .100000000000D+01  .169900000000D+04  .000000000000D+00
     .240000000000D+01  .000000000000D+00 -.102445483208D-07  .103000000000D+03
     .432060000000D+05  .400000000000D+01
